CCSDS_OMM_VERS = 2.0
CREATION_DATE  = 
ORIGINATOR     = 

OBJECT_NAME    = SL-16 R/B
OBJECT_ID      = 1993-016B
CENTER_NAME    = EARTH
REF_FRAME      = TEME
TIME_SYSTEM    = UTC
MEAN_ELEMENT_THEORY = SGP/SGP4

EPOCH          = 2025-12-28T06:06:12.955968
MEAN_MOTION    = 14.15294509
ECCENTRICITY   = .00080487
INCLINATION    = 71.0086
RA_OF_ASC_NODE = 5.2177
ARG_OF_PERICENTER = 66.5093
MEAN_ANOMALY   = 293.6875

EPHEMERIS_TYPE = 0
CLASSIFICATION_TYPE = U
NORAD_CAT_ID   = 22566
ELEMENT_SET_NO = 999
REV_AT_EPOCH   = 69206
BSTAR          = .11880337E-3
MEAN_MOTION_DOT = .184E-5
MEAN_MOTION_DDOT = 0

CCSDS_OMM_VERS = 2.0
CREATION_DATE  = 
ORIGINATOR     = 

OBJECT_NAME    = COSMOS 2242
OBJECT_ID      = 1993-024A
CENTER_NAME    = EARTH
REF_FRAME      = TEME
TIME_SYSTEM    = UTC
MEAN_ELEMENT_THEORY = SGP/SGP4

EPOCH          = 2025-12-28T05:15:17.036352
MEAN_MOTION    = 14.96173934
ECCENTRICITY   = .00162029
INCLINATION    = 82.5195
RA_OF_ASC_NODE = 335.0486
ARG_OF_PERICENTER = 179.3934
MEAN_ANOMALY   = 180.7311

EPHEMERIS_TYPE = 0
CLASSIFICATION_TYPE = U
NORAD_CAT_ID   = 22626
ELEMENT_SET_NO = 999
REV_AT_EPOCH   = 76970
BSTAR          = .27270558E-3
MEAN_MOTION_DOT = .3104E-4
MEAN_MOTION_DDOT = 0

CCSDS_OMM_VERS = 2.0
CREATION_DATE  = 
ORIGINATOR     = 

OBJECT_NAME    = SL-16 R/B
OBJECT_ID      = 1993-059B
CENTER_NAME    = EARTH
REF_FRAME      = TEME
TIME_SYSTEM    = UTC
MEAN_ELEMENT_THEORY = SGP/SGP4

EPOCH          = 2025-12-27T21:46:26.425920
MEAN_MOTION    = 14.17217673
ECCENTRICITY   = .0018729
INCLINATION    = 70.9889
RA_OF_ASC_NODE = 162.5015
ARG_OF_PERICENTER = 314.2789
MEAN_ANOMALY   = 45.6797

EPHEMERIS_TYPE = 0
CLASSIFICATION_TYPE = U
NORAD_CAT_ID   = 22803
ELEMENT_SET_NO = 999
REV_AT_EPOCH   = 66936
BSTAR          = .15068E-3
MEAN_MOTION_DOT = .257E-5
MEAN_MOTION_DDOT = 0

CCSDS_OMM_VERS = 2.0
CREATION_DATE  = 
ORIGINATOR     = 

OBJECT_NAME    = ARIANE 40 R/B
OBJECT_ID      = 1993-061H
CENTER_NAME    = EARTH
REF_FRAME      = TEME
TIME_SYSTEM    = UTC
MEAN_ELEMENT_THEORY = SGP/SGP4

EPOCH          = 2025-12-28T02:54:35.338176
MEAN_MOTION    = 14.32811963
ECCENTRICITY   = .0011627
INCLINATION    = 98.5056
RA_OF_ASC_NODE = 67.3700
ARG_OF_PERICENTER = 132.8265
MEAN_ANOMALY   = 227.3898

EPHEMERIS_TYPE = 0
CLASSIFICATION_TYPE = U
NORAD_CAT_ID   = 22830
ELEMENT_SET_NO = 999
REV_AT_EPOCH   = 68385
BSTAR          = .13667027E-3
MEAN_MOTION_DOT = .33E-5
MEAN_MOTION_DDOT = 0

CCSDS_OMM_VERS = 2.0
CREATION_DATE  = 
ORIGINATOR     = 

OBJECT_NAME    = COSMOS 2278
OBJECT_ID      = 1994-023A
CENTER_NAME    = EARTH
REF_FRAME      = TEME
TIME_SYSTEM    = UTC
MEAN_ELEMENT_THEORY = SGP/SGP4

EPOCH          = 2025-12-28T05:41:07.031616
MEAN_MOTION    = 14.14349752
ECCENTRICITY   = .00076931
INCLINATION    = 71.0536
RA_OF_ASC_NODE = 324.5871
ARG_OF_PERICENTER = 151.5201
MEAN_ANOMALY   = 208.6343

EPHEMERIS_TYPE = 0
CLASSIFICATION_TYPE = U
NORAD_CAT_ID   = 23087
ELEMENT_SET_NO = 999
REV_AT_EPOCH   = 63470
BSTAR          = .14035144E-3
MEAN_MOTION_DOT = .221E-5
MEAN_MOTION_DDOT = 0

CCSDS_OMM_VERS = 2.0
CREATION_DATE  = 
ORIGINATOR     = 

OBJECT_NAME    = SL-16 R/B
OBJECT_ID      = 1994-023B
CENTER_NAME    = EARTH
REF_FRAME      = TEME
TIME_SYSTEM    = UTC
MEAN_ELEMENT_THEORY = SGP/SGP4

EPOCH          = 2025-12-28T00:47:37.016448
MEAN_MOTION    = 14.14998750
ECCENTRICITY   = .0002235
INCLINATION    = 70.9973
RA_OF_ASC_NODE = 221.3700
ARG_OF_PERICENTER = 1.4781
MEAN_ANOMALY   = 358.6348

EPHEMERIS_TYPE = 0
CLASSIFICATION_TYPE = U
NORAD_CAT_ID   = 23088
ELEMENT_SET_NO = 999
REV_AT_EPOCH   = 63595
BSTAR          = -.522624E-4
MEAN_MOTION_DOT = -.149E-5
MEAN_MOTION_DDOT = 0

CCSDS_OMM_VERS = 2.0
CREATION_DATE  = 
ORIGINATOR     = 

OBJECT_NAME    = SL-16 R/B
OBJECT_ID      = 1994-074B
CENTER_NAME    = EARTH
REF_FRAME      = TEME
TIME_SYSTEM    = UTC
MEAN_ELEMENT_THEORY = SGP/SGP4

EPOCH          = 2025-12-28T02:19:57.512352
MEAN_MOTION    = 14.79307638
ECCENTRICITY   = .00080463
INCLINATION    = 97.7188
RA_OF_ASC_NODE = 30.7902
ARG_OF_PERICENTER = 93.9334
MEAN_ANOMALY   = 328.2631

EPHEMERIS_TYPE = 0
CLASSIFICATION_TYPE = U
NORAD_CAT_ID   = 23343
ELEMENT_SET_NO = 999
REV_AT_EPOCH   = 67666
BSTAR          = .94184326E-4
MEAN_MOTION_DOT = .652E-5
MEAN_MOTION_DDOT = 0

CCSDS_OMM_VERS = 2.0
CREATION_DATE  = 
ORIGINATOR     = 

OBJECT_NAME    = SL-16 R/B
OBJECT_ID      = 1994-077B
CENTER_NAME    = EARTH
REF_FRAME      = TEME
TIME_SYSTEM    = UTC
MEAN_ELEMENT_THEORY = SGP/SGP4

EPOCH          = 2025-12-28T07:48:25.144128
MEAN_MOTION    = 14.15551277
ECCENTRICITY   = .00050413
INCLINATION    = 70.9823
RA_OF_ASC_NODE = 142.6260
ARG_OF_PERICENTER = 272.1970
MEAN_ANOMALY   = 87.8576

EPHEMERIS_TYPE = 0
CLASSIFICATION_TYPE = U
NORAD_CAT_ID   = 23405
ELEMENT_SET_NO = 999
REV_AT_EPOCH   = 60613
BSTAR          = -.92055198E-4
MEAN_MOTION_DOT = -.228E-5
MEAN_MOTION_DDOT = 0

CCSDS_OMM_VERS = 2.0
CREATION_DATE  = 
ORIGINATOR     = 

OBJECT_NAME    = ARIANE 40+ R/B
OBJECT_ID      = 1995-021B
CENTER_NAME    = EARTH
REF_FRAME      = TEME
TIME_SYSTEM    = UTC
MEAN_ELEMENT_THEORY = SGP/SGP4

EPOCH          = 2025-12-28T05:40:03.869760
MEAN_MOTION    = 14.39707737
ECCENTRICITY   = .00066419
INCLINATION    = 98.4632
RA_OF_ASC_NODE = 69.6369
ARG_OF_PERICENTER = 6.0239
MEAN_ANOMALY   = 61.8062

EPHEMERIS_TYPE = 0
CLASSIFICATION_TYPE = U
NORAD_CAT_ID   = 23561
ELEMENT_SET_NO = 999
REV_AT_EPOCH   = 60896
BSTAR          = .14576056E-3
MEAN_MOTION_DOT = .413E-5
MEAN_MOTION_DDOT = 0

CCSDS_OMM_VERS = 2.0
CREATION_DATE  = 
ORIGINATOR     = 

OBJECT_NAME    = SL-16 R/B
OBJECT_ID      = 1995-058B
CENTER_NAME    = EARTH
REF_FRAME      = TEME
TIME_SYSTEM    = UTC
MEAN_ELEMENT_THEORY = SGP/SGP4

EPOCH          = 2025-12-28T06:11:39.721632
MEAN_MOTION    = 14.15481408
ECCENTRICITY   = .00144999
INCLINATION    = 71.0218
RA_OF_ASC_NODE = 330.2229
ARG_OF_PERICENTER = 234.5408
MEAN_ANOMALY   = 125.4362

EPHEMERIS_TYPE = 0
CLASSIFICATION_TYPE = U
NORAD_CAT_ID   = 23705
ELEMENT_SET_NO = 999
REV_AT_EPOCH   = 55774
BSTAR          = .2741564E-4
MEAN_MOTION_DOT = .6E-7
MEAN_MOTION_DDOT = 0

CCSDS_OMM_VERS = 2.0
CREATION_DATE  = 
ORIGINATOR     = 

OBJECT_NAME    = SL-16 R/B
OBJECT_ID      = 1996-051B
CENTER_NAME    = EARTH
REF_FRAME      = TEME
TIME_SYSTEM    = UTC
MEAN_ELEMENT_THEORY = SGP/SGP4

EPOCH          = 2025-12-28T06:46:00.705504
MEAN_MOTION    = 14.12397997
ECCENTRICITY   = .0019452
INCLINATION    = 70.7596
RA_OF_ASC_NODE = 326.3849
ARG_OF_PERICENTER = 242.2915
MEAN_ANOMALY   = 117.6232

EPHEMERIS_TYPE = 0
CLASSIFICATION_TYPE = U
NORAD_CAT_ID   = 24298
ELEMENT_SET_NO = 999
REV_AT_EPOCH   = 51156
BSTAR          = .35620855E-4
MEAN_MOTION_DOT = .16E-6
MEAN_MOTION_DDOT = 0

CCSDS_OMM_VERS = 2.0
CREATION_DATE  = 
ORIGINATOR     = 

OBJECT_NAME    = ORBVIEW 2 (SEASTAR)
OBJECT_ID      = 1997-037A
CENTER_NAME    = EARTH
REF_FRAME      = TEME
TIME_SYSTEM    = UTC
MEAN_ELEMENT_THEORY = SGP/SGP4

EPOCH          = 2025-12-28T04:20:23.149536
MEAN_MOTION    = 14.35428596
ECCENTRICITY   = .00011972
INCLINATION    = 98.8465
RA_OF_ASC_NODE = 159.6447
ARG_OF_PERICENTER = 270.3164
MEAN_ANOMALY   = 89.7883

EPHEMERIS_TYPE = 0
CLASSIFICATION_TYPE = U
NORAD_CAT_ID   = 24883
ELEMENT_SET_NO = 999
REV_AT_EPOCH   = 49821
BSTAR          = .16306413E-3
MEAN_MOTION_DOT = .422E-5
MEAN_MOTION_DDOT = 0

