SL-16 R/B               
1 22566U 93016B   25362.25431662  .00000184  00000+0  11880-3 0  9990
2 22566  71.0086   5.2177 0008048  66.5093 293.6875 14.15294509692069
COSMOS 2242             
1 22626U 93024A   25362.21894718  .00003104  00000+0  27271-3 0  9993
2 22626  82.5195 335.0486 0016202 179.3934 180.7311 14.96173934769703
SL-16 R/B               
1 22803U 93059B   25361.90725030  .00000257  00000+0  15068-3 0  9990
2 22803  70.9889 162.5015 0018729 314.2789  45.6797 14.17217673669366
ARIANE 40 R/B           
1 22830U 93061H   25362.12124234  .00000330  00000+0  13667-3 0  9992
2 22830  98.5056  67.3700 0011627 132.8265 227.3898 14.32811963683854
COSMOS 2278             
1 23087U 94023A   25362.23688694  .00000221  00000+0  14035-3 0  9992
2 23087  71.0536 324.5871 0007693 151.5201 208.6343 14.14349752634700
SL-16 R/B               
1 23088U 94023B   25362.03306732 -.00000149  00000+0 -52262-4 0  9997
2 23088  70.9973 221.3700 0002235   1.4781 358.6348 14.14998750635959
SL-16 R/B               
1 23343U 94074B   25362.09719343  .00000652  00000+0  94184-4 0  9995
2 23343  97.7188  30.7902 0008046  93.9334 328.2631 14.79307638676661
SL-16 R/B               
1 23405U 94077B   25362.32529102 -.00000228  00000+0 -92055-4 0  9991
2 23405  70.9823 142.6260 0005041 272.1970  87.8576 14.15551277606139
ARIANE 40+ R/B          
1 23561U 95021B   25362.23615590  .00000413  00000+0  14576-3 0  9996
2 23561  98.4632  69.6369 0006641   6.0239  61.8062 14.39707737608967
SL-16 R/B               
1 23705U 95058B   25362.25809863  .00000006  00000+0  27416-4 0  9992
2 23705  71.0218 330.2229 0014499 234.5408 125.4362 14.15481408557749
SL-16 R/B               
1 24298U 96051B   25362.28195261  .00000016  00000+0  35621-4 0  9995
2 24298  70.7596 326.3849 0019452 242.2915 117.6232 14.12397997511564
ORBVIEW 2 (SEASTAR)     
1 24883U 97037A   25362.18082349  .00000422  00000+0  16306-3 0  9990
2 24883  98.8465 159.6447 0001197 270.3164  89.7883 14.35428596498218
